#aV2012  9  9  0  0  0.00000000     288 DD+AD WGS84 FIT  NGA
## 1705      0.00000000   300.00000000 56179 0.0000000000000
+   31     1  2  3  4  5  6  7  8  9 10 11 12 13 14 15 16 17
+         18 19 20 21 22 23 25 26 27 28 29 30 31 32  0  0  0
+          0  0  0  0  0  0  0  0  0  0  0  0  0  0  0  0  0
+          0  0  0  0  0  0  0  0  0  0  0  0  0  0  0  0  0
+          0  0  0  0  0  0  0  0  0  0  0  0  0  0  0  0  0
++         2  2  2  2  2  2  2  2  2  2  2  2  2  2  2  2  2
++         2  2  2  2  2  2  2  2  2  2  2  2  2  2  2  0  0
++         0  0  0  0  0  0  0  0  0  0  0  0  0  0  0  0  0
++         0  0  0  0  0  0  0  0  0  0  0  0  0  0  0  0  0
++         0  0  0  0  0  0  0  0  0  0  0  0  0  0  0  0  0
%c cc cc ccc ccc cccc cccc cccc cccc ccccc ccccc ccccc ccccc
%c cc cc ccc ccc cccc cccc cccc cccc ccccc ccccc ccccc ccccc
%f  0.0000000  0.000000000  0.00000000000  0.000000000000000
%f  0.0000000  0.000000000  0.00000000000  0.000000000000000
%i    0    0    0    0      0      0      0      0         0
%i    0    0    0    0      0      0      0      0         0
/*      NGA, ST. LOUIS,MO.                                  
/*   EPHEMERIS COMPUTED FROM  1 DAYS OF DATA
/*   EPOCHA SMOOTHER  
/* CCCCCCCCCCCCCCCCCCCCCCCCCCCCCCCCCCCCCCCCCCCCCCCCCCCCCCCCC
*  2012  9  9 12 15  0.00000000                                                 
P  1 -10031.047439 -13818.937605 -20369.878930    272.970171                    
V  1  25755.338997  -2105.648873 -11210.797530      0.015125                    
P  2 -13579.799843  13982.018027  17961.408546    402.353186                    
V  2 -22864.135890   -801.517864 -17305.004224      0.012004                    
P  3   8925.183248 -24862.290192    -29.620414     99.291019                    
V  3   3542.105683   1848.371986  31269.683327      0.050618                    
P  4 -24858.906467   6351.987927   7193.171006    299.351993                    
V  4  -9557.589346  -2720.509479 -29241.728695      0.112639                    
P  5  -3138.302293  19133.274193  18075.297390   -350.580639                    
V  5 -13915.107882 -18491.718112  17271.777136     -0.030672                    
P  6  13789.140500 -21995.515127   4843.214465    -26.352565                    
V  6    855.810804   7071.836826  30648.514129     -0.083016                    
P  7 -22792.280525  -7406.317413  11783.810432    120.090065                    
V  7  14741.833161  -2124.312107  26969.679312      0.042119                    
P  8 -26848.403386   -933.658396  -1081.880753      2.124950                    
V  8  -1376.457179  -1199.499814  32128.127682      0.000590                    
P  9   4668.848217  14561.434914 -22261.812532    184.380245                    
V  9 -26839.571070   1617.912616  -4748.958781      0.024920                    
P 10 -16013.608021   2633.318380  20827.201657    -51.134868                    
V 10 -13527.148726 -23417.015866  -6948.290262     -0.013708                    
P 11  -4261.625591 -16417.621906 -20836.501580   -300.902031                    
V 11  24692.181824  -7844.298872   1468.190202     -0.039351                    
P 12  11143.376153  23890.553551  -4026.544330     89.969587                    
V 12  -4294.651682  -3317.849186 -31529.542698      0.020306                    
P 13 -11890.135871  -8547.668166  22021.439085    182.322127                    
V 13  15483.555776 -23596.669036   -903.309719     -0.025828                    
P 14  18504.716646  -8620.751670 -16714.301947    212.219132                    
V 14  -9896.744218  19286.236410 -20813.277739      0.009144                    
P 15  -1574.088563  23365.426206 -12322.006974    -95.060782                    
V 15  -9580.454826  12847.561097  25815.187287     -0.006631                    
P 16   3612.832866 -18564.726261  18507.311526   -245.647085                    
V 16  12895.055861  19783.867747  17625.339550     -0.008228                    
P 17 -18379.871335   8589.948105 -16832.637596     97.994448                    
V 17   9154.606467 -19888.944363 -20165.849237     -0.032731                    
P 18  19270.954977  13502.611750 -12278.602904    214.124696                    
V 18   6036.935148  15247.204263  25098.572752      0.018162                    
P 19   5569.503843 -23209.604632 -11277.701891   -302.236366                    
V 19  10038.404313 -10620.875150  27369.445474     -0.035394                    
P 20 -14085.504743 -22496.326958  -1885.527473     67.850835                    
V 20   4322.644118   -331.354781 -30875.275099      0.007456                    
P 21  24586.861181   6066.147739   9410.042834   -248.572419                    
V 21 -11004.433402   3217.732587  27659.453205     -0.024223                    
P 22  17099.001394  -1130.577952 -20130.579167    147.657464                    
V 22  12782.054062  22772.853835   9359.667291      0.006102                    
P 23  -4261.477333 -18843.057718  18105.120386    166.335623                    
V 23  12537.274245 -19408.368872 -17681.617494     -0.039342                    
P 25  18019.011006  17866.879847   7912.277814     42.254097                    
V 25   3520.203295   9723.774156 -29755.474331      0.012360                    
P 26 -12317.190532  23163.574662  -3210.478594   -286.687445                    
V 26  -3810.058548   1529.287337  32116.787320      0.128991                    
P 27    641.616182  14454.893452 -21666.669488    429.365811                    
V 27 -28858.726360   1939.819385    938.874247      0.040957                    
P 28 -17089.678092  -3652.393979 -19510.294783    183.672718                    
V 28 -11857.658692 -23031.884391  14086.919005      0.037835                    
P 29   9980.584672  12321.402333  21368.067345    353.608201                    
V 29 -14064.559836  23040.861869  -6689.210998      0.041412                    
P 30  10898.889960 -10438.360245  21496.043971   -417.126104                    
V 30  17527.161658  22041.856046   1769.866054     -0.241006                    
P 31  23409.387036  -7547.213828  10527.980878    273.251443                    
V 31  13010.081484   1399.829579 -28198.210601      0.024789                    
P 32  -5696.398663 -24612.793279  -8770.805568   -486.006678                    
V 32   7430.320194   8850.521907 -28533.810194     -0.041413                    
EOF
